     2.100          NAVIGATION                              RINEX VERSION / TYPE
fic2rin                                 07/15/2008 01:12:00 PGM / RUN BY / DATE
                                                            END OF HEADER
23 08  7 14 11 59 28.0  .364277511835D-03  .181898940355D-11  .000000000000D+00
     .150000000000D+02  .165625000000D+01  .456804742037D-08  .144060359147D+01
     .152736902237D-06  .574854016304D-02  .575557351112D-06  .515371820831D+04
     .129568000000D+06  .558793544769D-07  .105921534324D+01 -.149011611938D-07
     .971202436286D+00  .368875000000D+03  .276673551097D+01 -.834177603988D-08
    -.161792453591D-09  .100000000000D+01  .148800000000D+04  .000000000000D+00
     .240000000000D+01  .000000000000D+00 -.200234353542D-07  .150000000000D+02
     .122406000000D+06  .400000000000D+01
21 08  7 14 11 59 44.0  .580609776080D-04 -.125055521494D-11  .000000000000D+00
     .200000000000D+01  .292500000000D+02  .499127933539D-08 -.116714591643D+01
     .145286321640D-05  .141638860805D-01  .786036252975D-05  .515370314407D+04
     .129584000000D+06  .301748514175D-06 -.101406056856D+01 -.115483999252D-06
     .935713772852D+00  .208656250000D+03 -.269892825589D+01 -.807819363205D-08
    -.184650548579D-09  .100000000000D+01  .148800000000D+04  .000000000000D+00
     .240000000000D+01  .000000000000D+00 -.116415321827D-07  .200000000000D+01
     .122406000000D+06  .400000000000D+01
30 08  7 14 11 59 44.0  .858665443957D-04  .181898940355D-11  .000000000000D+00
     .330000000000D+02 -.313750000000D+02  .441482675240D-08 -.280600295470D+01
    -.151805579662D-05  .108108605491D-01  .907480716705D-05  .515371316910D+04
     .129584000000D+06  .353902578354D-07  .311007217739D+01 -.335276126862D-07
     .949513424965D+00  .197312500000D+03  .138007156845D+01 -.761996025907D-08
     .385730352932D-09  .100000000000D+01  .148800000000D+04  .000000000000D+00
     .240000000000D+01  .000000000000D+00 -.838190317154D-08  .330000000000D+02
     .122406000000D+06  .400000000000D+01
 2 08  7 14 12  0  0.0  .202001072466D-03 -.250111042988D-11  .000000000000D+00
     .160000000000D+02  .214062500000D+02  .486841707483D-08  .165191748227D+01
     .103749334812D-05  .875072809868D-02  .859424471855D-05  .515375045013D+04
     .129600000000D+06  .447034835815D-07 -.104809436582D+01  .163912773132D-06
     .942870499758D+00  .204781250000D+03  .260635489931D+01 -.790711507737D-08
    -.411802867528D-09  .100000000000D+01  .148800000000D+04  .000000000000D+00
     .240000000000D+01  .000000000000D+00 -.172294676304D-07  .160000000000D+02
     .122406000000D+06  .400000000000D+01
 3 08  7 14 12  0  0.0  .255460385233D-03  .522959453519D-11  .000000000000D+00
     .470000000000D+02  .671875000000D+01  .553451624910D-08  .128360095568D+01
     .318512320518D-06  .108107350534D-01  .596791505814D-05  .515368238831D+04
     .129600000000D+06 -.143423676491D-06 -.219275172329D+01  .558793544769D-07
     .925724192860D+00  .247343750000D+03  .823751766099D+00 -.851821196058D-08
     .253581991279D-10  .100000000000D+01  .148800000000D+04  .000000000000D+00
     .240000000000D+01  .000000000000D+00 -.419095158577D-08  .470000000000D+02
     .122406000000D+06  .400000000000D+01
 4 08  7 14 12  0  0.0 -.115174800158D-03 -.977706804406D-11  .000000000000D+00
     .220000000000D+02  .233437500000D+02  .484484466437D-08 -.192251366761D+01
     .843778252602D-06  .817586306948D-02  .892207026482D-05  .515355373573D+04
     .129600000000D+06 -.558793544769D-08 -.102928972863D+01 -.106170773506D-06
     .942177816825D+00  .195656250000D+03  .379689888111D+00 -.795283126734D-08
    -.237867050975D-09  .100000000000D+01  .148800000000D+04  .000000000000D+00
     .240000000000D+01  .000000000000D+00 -.605359673500D-08  .220000000000D+02
     .122406000000D+06  .400000000000D+01
 5 08  7 14 12  0  0.0 -.355021096766D-03  .213731254917D-10  .000000000000D+00
     .540000000000D+02 -.338750000000D+02  .457340478638D-08 -.226012422398D+01
    -.170618295670D-05  .899254763499D-02  .908225774765D-05  .515356179047D+04
     .129600000000D+06  .875443220139D-07  .305819788935D+01 -.109896063805D-06
     .943443188299D+00  .195343750000D+03  .123846588650D+01 -.774103673097D-08
     .341799951626D-09  .100000000000D+01  .148800000000D+04  .000000000000D+00
     .485000000000D+01  .000000000000D+00 -.419095158577D-08  .540000000000D+02
     .122406000000D+06  .400000000000D+01
 6 08  7 14 12  0  0.0  .160648487508D-03  .375166564481D-11  .000000000000D+00
     .610000000000D+02  .615625000000D+01  .527486257634D-08 -.235960077791D+01
     .281259417534D-06  .589261320420D-02  .542588531971D-05  .515371909523D+04
     .129600000000D+06  .100582838058D-06 -.212772060836D+01  .130385160446D-07
     .933234242278D+00  .255500000000D+03 -.163089259480D+01 -.818926968738D-08
     .127148153374D-09  .100000000000D+01  .148800000000D+04  .000000000000D+00
     .240000000000D+01  .000000000000D+00 -.465661287308D-08  .610000000000D+02
     .122406000000D+06  .400000000000D+01
 7 08  7 14 12  0  0.0 -.454904511571D-05  .557065504836D-11  .000000000000D+00
     .420000000000D+02 -.124062500000D+03  .423231915022D-08  .369756655335D-01
    -.662542879581D-05  .192207447253D-02  .672228634357D-05  .515371166992D+04
     .129600000000D+06  .577419996262D-07  .210333920310D+01 -.298023223877D-07
     .962981887055D+00  .254937500000D+03  .263584733218D+01 -.792925885689D-08
    -.249653256203D-09  .100000000000D+01  .148800000000D+04  .000000000000D+00
     .240000000000D+01  .000000000000D+00 -.107102096081D-07  .420000000000D+02
     .122406000000D+06  .400000000000D+01
 8 08  7 14 12  0  0.0 -.161719508469D-03 -.159161572810D-11  .000000000000D+00
     .370000000000D+02 -.108968750000D+03  .377765735459D-08 -.792238778577D+00
    -.576488673687D-05  .103438522201D-01  .709481537342D-05  .515373527527D+04
     .129600000000D+06  .149011611938D-07  .215712358817D+01 -.232830643654D-06
     .984190019648D+00  .256968750000D+03  .288545086691D+01 -.769246327912D-08
    -.119647840956D-09  .100000000000D+01  .148800000000D+04  .000000000000D+00
     .340000000000D+01  .000000000000D+00 -.372529029846D-08  .370000000000D+02
     .122406000000D+06  .400000000000D+01
 9 08  7 14 12  0  0.0  .525312498212D-05  .181898940355D-11  .000000000000D+00
     .161000000000D+03 -.955625000000D+02  .425410577201D-08 -.118157538696D+01
    -.479444861412D-05  .201158442069D-01  .638142228127D-05  .515366590118D+04
     .129600000000D+06 -.156462192535D-06  .206700613458D+01  .469386577606D-06
     .971980423435D+00  .261093750000D+03  .142000566249D+01 -.809426573009D-08
    -.250367571671D-09  .100000000000D+01  .148800000000D+04  .000000000000D+00
     .340000000000D+01  .000000000000D+00 -.558793544769D-08  .161000000000D+03
     .122406000000D+06  .400000000000D+01
10 08  7 14 12  0  0.0 -.287080183625D-05 -.227373675443D-12  .000000000000D+00
     .520000000000D+02  .106625000000D+03  .443982779379D-08  .251082400807D+01
     .554695725441D-05  .797498272732D-02  .697933137417D-05  .515367345619D+04
     .129600000000D+06 -.126659870148D-06  .336760581944D-01 -.121071934700D-06
     .963337775525D+00  .246281250000D+03  .559463863458D+00 -.782496879850D-08
     .137862885400D-09  .100000000000D+01  .148800000000D+04  .000000000000D+00
     .240000000000D+01  .000000000000D+00 -.232830643654D-08  .520000000000D+02
     .122406000000D+06  .400000000000D+01
11 08  7 14 12  0  0.0  .233668833971D-04 -.682121026330D-12  .000000000000D+00
     .930000000000D+02  .709375000000D+01  .622168772970D-08 -.391762998456D+00
     .497326254845D-06  .817817868665D-02  .758655369282D-05  .515363479614D+04
     .129600000000D+06  .782310962677D-07 -.123221055559D+01  .651925802231D-07
     .890567832731D+00  .195750000000D+03  .594481636969D+00 -.880465246340D-08
    -.366086677551D-09  .100000000000D+01  .148800000000D+04  .000000000000D+00
     .340000000000D+01  .000000000000D+00 -.116415321827D-07  .930000000000D+02
     .122406000000D+06  .400000000000D+01
12 08  7 14 12  0  0.0 -.357038807124D-03  .795807864051D-12  .000000000000D+00
     .200000000000D+02 -.286875000000D+02  .422946188835D-08  .502997098134D-01
    -.150501728058D-05  .332384242211D-02  .919029116631D-05  .515357134628D+04
     .129600000000D+06  .186264514923D-08 -.313054362686D+01 -.135973095894D-06
     .964664405230D+00  .208218750000D+03 -.905871380722D+00 -.775246577846D-08
     .293940815243D-09  .100000000000D+01  .148800000000D+04  .000000000000D+00
     .240000000000D+01  .000000000000D+00 -.116415321827D-07  .200000000000D+02
     .122406000000D+06  .400000000000D+01
13 08  7 14 12  0  0.0  .263760797679D-03  .147792889038D-11  .000000000000D+00
     .450000000000D+02 -.515625000000D+01  .393552107311D-08  .216605787319D+01
    -.482425093651D-06  .383163196966D-02  .951811671257D-06  .515360933685D+04
     .129600000000D+06 -.447034835815D-07  .110378950183D+01 -.540167093277D-07
     .995340315416D+00  .375125000000D+03  .150664458509D+01 -.796711757671D-08
    -.141434462742D-09  .100000000000D+01  .148800000000D+04  .000000000000D+00
     .240000000000D+01  .000000000000D+00 -.111758708954D-07  .450000000000D+02
     .122406000000D+06  .400000000000D+01
14 08  7 14 12  0  0.0 -.244291964918D-03  .443378667114D-11  .000000000000D+00
     .410000000000D+02 -.512500000000D+01  .408731311014D-08  .196050027244D+01
    -.342726707458D-06  .386510556564D-02  .180117785931D-05  .515371318054D+04
     .129600000000D+06 -.134110450745D-06  .108619736919D+01 -.102445483208D-06
     .989064668959D+00  .361000000000D+03 -.218706164051D+01 -.801283376669D-08
    -.514307137242D-10  .100000000000D+01  .148800000000D+04  .000000000000D+00
     .240000000000D+01  .000000000000D+00 -.884756445885D-08  .410000000000D+02
     .122406000000D+06  .400000000000D+01
